[{"OBJECT_NAME":"STARLINK-5479","OBJECT_ID":"2023-021AL","EPOCH":"2026-01-28T23:25:59.411712","MEAN_MOTION":14.97523496,"ECCENTRICITY":0.00028494,"INCLINATION":69.9989,"RA_OF_ASC_NODE":264.2947,"ARG_OF_PERICENTER":262.1325,"MEAN_ANOMALY":97.951,"EPHEMERIS_TYPE":0,"CLASSIFICATION_TYPE":"U","NORAD_CAT_ID":55662,"ELEMENT_SET_NO":999,"REV_AT_EPOCH":16334,"BSTAR":5.1478261e-5,"MEAN_MOTION_DOT":5.09e-6,"MEAN_MOTION_DDOT":0},{"OBJECT_NAME":"STARLINK-5473","OBJECT_ID":"2023-021AM","EPOCH":"2026-01-29T00:00:02.000160","MEAN_MOTION":14.98318038,"ECCENTRICITY":0.00026558,"INCLINATION":70.0008,"RA_OF_ASC_NODE":264.5119,"ARG_OF_PERICENTER":275.1934,"MEAN_ANOMALY":306.2374,"EPHEMERIS_TYPE":0,"CLASSIFICATION_TYPE":"U","NORAD_CAT_ID":55663,"ELEMENT_SET_NO":999,"REV_AT_EPOCH":577,"BSTAR":0.0027846693,"MEAN_MOTION_DOT":0.00033281,"MEAN_MOTION_DDOT":0},{"OBJECT_NAME":"STARLINK-5480","OBJECT_ID":"2023-021AN","EPOCH":"2026-01-29T00:00:02.000160","MEAN_MOTION":14.98317045,"ECCENTRICITY":0.00029428,"INCLINATION":70.0009,"RA_OF_ASC_NODE":264.6117,"ARG_OF_PERICENTER":272.0232,"MEAN_ANOMALY":219.3644,"EPHEMERIS_TYPE":0,"CLASSIFICATION_TYPE":"U","NORAD_CAT_ID":55664,"ELEMENT_SET_NO":999,"REV_AT_EPOCH":577,"BSTAR":0.0022889292,"MEAN_MOTION_DOT":0.00027316,"MEAN_MOTION_DDOT":0},{"OBJECT_NAME":"STARLINK-5474","OBJECT_ID":"2023-021AP","EPOCH":"2026-01-28T22:54:54.847008","MEAN_MOTION":14.98330359,"ECCENTRICITY":0.00028451,"INCLINATION":69.9987,"RA_OF_ASC_NODE":264.603,"ARG_OF_PERICENTER":261.7554,"MEAN_ANOMALY":98.3282,"EPHEMERIS_TYPE":0,"CLASSIFICATION_TYPE":"U","NORAD_CAT_ID":55665,"ELEMENT_SET_NO":999,"REV_AT_EPOCH":16332,"BSTAR":9.98452e-6,"MEAN_MOTION_DOT":2.6e-7,"MEAN_MOTION_DDOT":0},{"OBJECT_NAME":"STARLINK-5456","OBJECT_ID":"2023-021AR","EPOCH":"2026-01-28T19:24:36.834624","MEAN_MOTION":14.98333279,"ECCENTRICITY":0.00027532,"INCLINATION":69.999,"RA_OF_ASC_NODE":264.8957,"ARG_OF_PERICENTER":265.6655,"MEAN_ANOMALY":94.4189,"EPHEMERIS_TYPE":0,"CLASSIFICATION_TYPE":"U","NORAD_CAT_ID":55667,"ELEMENT_SET_NO":999,"REV_AT_EPOCH":16331,"BSTAR":2.9928253e-5,"MEAN_MOTION_DOT":2.64e-6,"MEAN_MOTION_DDOT":0},{"OBJECT_NAME":"STARLINK-5455","OBJECT_ID":"2023-021AS","EPOCH":"2026-01-27T02:27:39.156192","MEAN_MOTION":14.98045033,"ECCENTRICITY":0.00022121,"INCLINATION":69.9979,"RA_OF_ASC_NODE":269.3731,"ARG_OF_PERICENTER":289.3218,"MEAN_ANOMALY":70.7702,"EPHEMERIS_TYPE":0,"CLASSIFICATION_TYPE":"U","NORAD_CAT_ID":55668,"ELEMENT_SET_NO":999,"REV_AT_EPOCH":16304,"BSTAR":-0.0030197492,"MEAN_MOTION_DOT":-0.00035676,"MEAN_MOTION_DDOT":0},{"OBJECT_NAME":"STARLINK-5459","OBJECT_ID":"2023-021AT","EPOCH":"2026-01-27T02:14:53.704032","MEAN_MOTION":14.98586136,"ECCENTRICITY":0.000425,"INCLINATION":70.0122,"RA_OF_ASC_NODE":269.347,"ARG_OF_PERICENTER":303.7847,"MEAN_ANOMALY":56.2907,"EPHEMERIS_TYPE":0,"CLASSIFICATION_TYPE":"U","NORAD_CAT_ID":55669,"ELEMENT_SET_NO":999,"REV_AT_EPOCH":16304,"BSTAR":0.0020741,"MEAN_MOTION_DOT":0.0002491,"MEAN_MOTION_DDOT":0},{"OBJECT_NAME":"STARLINK-5423","OBJECT_ID":"2023-021AU","EPOCH":"2026-01-28T22:49:05.638944","MEAN_MOTION":14.98269267,"ECCENTRICITY":0.00037317,"INCLINATION":69.9975,"RA_OF_ASC_NODE":264.5864,"ARG_OF_PERICENTER":304.5171,"MEAN_ANOMALY":55.5636,"EPHEMERIS_TYPE":0,"CLASSIFICATION_TYPE":"U","NORAD_CAT_ID":55670,"ELEMENT_SET_NO":999,"REV_AT_EPOCH":16333,"BSTAR":-0.0001840296,"MEAN_MOTION_DOT":-2.285e-5,"MEAN_MOTION_DDOT":0},{"OBJECT_NAME":"STARLINK-5460","OBJECT_ID":"2023-021AV","EPOCH":"2026-01-28T22:19:11.038368","MEAN_MOTION":14.98208244,"ECCENTRICITY":0.00012654,"INCLINATION":69.9984,"RA_OF_ASC_NODE":264.9051,"ARG_OF_PERICENTER":267.756,"MEAN_ANOMALY":92.3454,"EPHEMERIS_TYPE":0,"CLASSIFICATION_TYPE":"U","NORAD_CAT_ID":55671,"ELEMENT_SET_NO":999,"REV_AT_EPOCH":16332,"BSTAR":0.0022075082,"MEAN_MOTION_DOT":0.00026261,"MEAN_MOTION_DDOT":0},{"OBJECT_NAME":"STARLINK-5463","OBJECT_ID":"2023-021AX","EPOCH":"2026-01-28T22:42:53.734464","MEAN_MOTION":14.98332351,"ECCENTRICITY":0.0003127,"INCLINATION":69.998,"RA_OF_ASC_NODE":264.5697,"ARG_OF_PERICENTER":270.1565,"MEAN_ANOMALY":89.9236,"EPHEMERIS_TYPE":0,"CLASSIFICATION_TYPE":"U","NORAD_CAT_ID":55673,"ELEMENT_SET_NO":999,"REV_AT_EPOCH":16333,"BSTAR":0.00012400256,"MEAN_MOTION_DOT":1.387e-5,"MEAN_MOTION_DDOT":0},{"OBJECT_NAME":"STARLINK-5462","OBJECT_ID":"2023-021AY","EPOCH":"2026-01-29T00:00:02.000160","MEAN_MOTION":14.98321304,"ECCENTRICITY":0.00030013,"INCLINATION":70.0007,"RA_OF_ASC_NODE":264.3849,"ARG_OF_PERICENTER":273.3701,"MEAN_ANOMALY":60.5987,"EPHEMERIS_TYPE":0,"CLASSIFICATION_TYPE":"U","NORAD_CAT_ID":55674,"ELEMENT_SET_NO":999,"REV_AT_EPOCH":576,"BSTAR":0.0025927532,"MEAN_MOTION_DOT":0.00030973,"MEAN_MOTION_DDOT":0},{"OBJECT_NAME":"STARLINK-5232","OBJECT_ID":"2023-021AZ","EPOCH":"2026-01-28T22:18:52.557408","MEAN_MOTION":14.98320069,"ECCENTRICITY":0.00026239,"INCLINATION":69.9974,"RA_OF_ASC_NODE":264.5139,"ARG_OF_PERICENTER":276.5822,"MEAN_ANOMALY":83.5038,"EPHEMERIS_TYPE":0,"CLASSIFICATION_TYPE":"U","NORAD_CAT_ID":55675,"ELEMENT_SET_NO":999,"REV_AT_EPOCH":16333,"BSTAR":0.00024069971,"MEAN_MOTION_DOT":2.779e-5,"MEAN_MOTION_DDOT":0},{"OBJECT_NAME":"STARLINK-5300","OBJECT_ID":"2023-021BA","EPOCH":"2026-01-28T22:42:49.430016","MEAN_MOTION":14.98333012,"ECCENTRICITY":0.00031907,"INCLINATION":69.9993,"RA_OF_ASC_NODE":244.6979,"ARG_OF_PERICENTER":268.3004,"MEAN_ANOMALY":91.779,"EPHEMERIS_TYPE":0,"CLASSIFICATION_TYPE":"U","NORAD_CAT_ID":55676,"ELEMENT_SET_NO":999,"REV_AT_EPOCH":16382,"BSTAR":0.00057428097,"MEAN_MOTION_DOT":6.766e-5,"MEAN_MOTION_DDOT":0},{"OBJECT_NAME":"STARLINK-5324","OBJECT_ID":"2023-021BB","EPOCH":"2026-01-28T22:24:32.462784","MEAN_MOTION":14.98332725,"ECCENTRICITY":0.00024602,"INCLINATION":69.9978,"RA_OF_ASC_NODE":244.6503,"ARG_OF_PERICENTER":266.0431,"MEAN_ANOMALY":94.0446,"EPHEMERIS_TYPE":0,"CLASSIFICATION_TYPE":"U","NORAD_CAT_ID":55677,"ELEMENT_SET_NO":999,"REV_AT_EPOCH":16382,"BSTAR":-6.43344e-7,"MEAN_MOTION_DOT":-1.01e-6,"MEAN_MOTION_DDOT":0},{"OBJECT_NAME":"STARLINK-5592","OBJECT_ID":"2023-028A","EPOCH":"2026-01-28T22:38:14.554464","MEAN_MOTION":14.98335132,"ECCENTRICITY":0.00027618,"INCLINATION":70.001,"RA_OF_ASC_NODE":344.7854,"ARG_OF_PERICENTER":270.4524,"MEAN_ANOMALY":89.6318,"EPHEMERIS_TYPE":0,"CLASSIFICATION_TYPE":"U","NORAD_CAT_ID":55741,"ELEMENT_SET_NO":999,"REV_AT_EPOCH":16027,"BSTAR":4.4453857e-5,"MEAN_MOTION_DOT":4.38e-6,"MEAN_MOTION_DDOT":0},{"OBJECT_NAME":"STARLINK-5594","OBJECT_ID":"2023-028B","EPOCH":"2026-01-28T21:08:06.992736","MEAN_MOTION":14.98328078,"ECCENTRICITY":0.00030209,"INCLINATION":70.0012,"RA_OF_ASC_NODE":344.9699,"ARG_OF_PERICENTER":267.7912,"MEAN_ANOMALY":92.2901,"EPHEMERIS_TYPE":0,"CLASSIFICATION_TYPE":"U","NORAD_CAT_ID":55742,"ELEMENT_SET_NO":999,"REV_AT_EPOCH":16007,"BSTAR":0.00012773503,"MEAN_MOTION_DOT":1.431e-5,"MEAN_MOTION_DDOT":0},{"OBJECT_NAME":"STARLINK-5602","OBJECT_ID":"2023-028C","EPOCH":"2026-01-28T22:50:15.712800","MEAN_MOTION":14.98332979,"ECCENTRICITY":0.00028309,"INCLINATION":70.0026,"RA_OF_ASC_NODE":344.8157,"ARG_OF_PERICENTER":264.173,"MEAN_ANOMALY":95.9106,"EPHEMERIS_TYPE":0,"CLASSIFICATION_TYPE":"U","NORAD_CAT_ID":55743,"ELEMENT_SET_NO":999,"REV_AT_EPOCH":16008,"BSTAR":0.0002105283,"MEAN_MOTION_DOT":2.42e-5,"MEAN_MOTION_DDOT":0},{"OBJECT_NAME":"STARLINK-5601","OBJECT_ID":"2023-028D","EPOCH":"2026-01-28T03:32:57.975072","MEAN_MOTION":14.96603262,"ECCENTRICITY":0.00073436,"INCLINATION":70.0034,"RA_OF_ASC_NODE":346.8252,"ARG_OF_PERICENTER":23.58,"MEAN_ANOMALY":336.5693,"EPHEMERIS_TYPE":0,"CLASSIFICATION_TYPE":"U","NORAD_CAT_ID":55744,"ELEMENT_SET_NO":999,"REV_AT_EPOCH":15996,"BSTAR":-0.020102382,"MEAN_MOTION_DOT":-0.00222509,"MEAN_MOTION_DDOT":0},{"OBJECT_NAME":"STARLINK-5579","OBJECT_ID":"2023-028F","EPOCH":"2026-01-29T00:00:02.000160","MEAN_MOTION":14.9835809,"ECCENTRICITY":0.00025943,"INCLINATION":70.0027,"RA_OF_ASC_NODE":344.4914,"ARG_OF_PERICENTER":272.8647,"MEAN_ANOMALY":168.5601,"EPHEMERIS_TYPE":0,"CLASSIFICATION_TYPE":"U","NORAD_CAT_ID":55746,"ELEMENT_SET_NO":999,"REV_AT_EPOCH":577,"BSTAR":-0.0031762716,"MEAN_MOTION_DOT":-0.00037814,"MEAN_MOTION_DDOT":0},{"OBJECT_NAME":"STARLINK-5539","OBJECT_ID":"2023-028G","EPOCH":"2026-01-28T22:26:13.177536","MEAN_MOTION":14.98330455,"ECCENTRICITY":0.00025657,"INCLINATION":70.0018,"RA_OF_ASC_NODE":344.7573,"ARG_OF_PERICENTER":268.7704,"MEAN_ANOMALY":91.3162,"EPHEMERIS_TYPE":0,"CLASSIFICATION_TYPE":"U","NORAD_CAT_ID":55747,"ELEMENT_SET_NO":999,"REV_AT_EPOCH":16008,"BSTAR":9.6707005e-5,"MEAN_MOTION_DOT":1.061e-5,"MEAN_MOTION_DDOT":0},{"OBJECT_NAME":"STARLINK-5580","OBJECT_ID":"2023-028H","EPOCH":"2026-01-28T23:56:17.399040","MEAN_MOTION":14.98370582,"ECCENTRICITY":0.00030019,"INCLINATION":70.0009,"RA_OF_ASC_NODE":344.5737,"ARG_OF_PERICENTER":270.0537,"MEAN_ANOMALY":90.0278,"EPHEMERIS_TYPE":0,"CLASSIFICATION_TYPE":"U","NORAD_CAT_ID":55748,"ELEMENT_SET_NO":999,"REV_AT_EPOCH":16009,"BSTAR":0.0005853295,"MEAN_MOTION_DOT":6.905e-5,"MEAN_MOTION_DDOT":0},{"OBJECT_NAME":"STARLINK-5573","OBJECT_ID":"2023-028K","EPOCH":"2026-01-28T23:50:19.768704","MEAN_MOTION":14.98331073,"ECCENTRICITY":0.00028389,"INCLINATION":70.0012,"RA_OF_ASC_NODE":344.5606,"ARG_OF_PERICENTER":268.912,"MEAN_ANOMALY":91.1714,"EPHEMERIS_TYPE":0,"CLASSIFICATION_TYPE":"U","NORAD_CAT_ID":55750,"ELEMENT_SET_NO":999,"REV_AT_EPOCH":16009,"BSTAR":0.00017405325,"MEAN_MOTION_DOT":1.984e-5,"MEAN_MOTION_DDOT":0},{"OBJECT_NAME":"STARLINK-5577","OBJECT_ID":"2023-028L","EPOCH":"2026-01-28T22:32:13.783488","MEAN_MOTION":14.98329299,"ECCENTRICITY":0.0002928,"INCLINATION":70.0013,"RA_OF_ASC_NODE":344.7726,"ARG_OF_PERICENTER":269.747,"MEAN_ANOMALY":90.3354,"EPHEMERIS_TYPE":0,"CLASSIFICATION_TYPE":"U","NORAD_CAT_ID":55751,"ELEMENT_SET_NO":999,"REV_AT_EPOCH":16008,"BSTAR":8.7651824e-5,"MEAN_MOTION_DOT":9.53e-6,"MEAN_MOTION_DDOT":0}]
